ALSAT 2A                
1 36798U 10035D   23357.88465574  .00001448  00000+0  24065-3 0  9995
2 36798  97.8014  22.6385 0001072  92.5291 267.6039 14.71535036720320
TISAT 1                 
1 36799U 10035E   23357.64572058  .00009603  00000+0  79648-3 0  9994
2 36799  98.1087 234.7283 0011176  63.1792 297.0571 14.98986013730585
BEIDOU-2 IGSO-1         
1 36828U 10036A   23357.92023135 -.00000040  00000+0  00000+0 0  9995
2 36828  54.2419 171.1636 0038443 191.0802 169.8052  1.00278101 49129
NILESAT 201             
1 36830U 10037A   23357.88534236 -.00000046  00000+0  00000+0 0  9999
2 36830   0.0118 291.7845 0004529 321.0745 151.0118  1.00270856 49278
RASCOM-QAF 1R           
1 36831U 10037B   23357.88725685  .00000030  00000+0  00000+0 0  9992
2 36831   0.0506  93.1121 0006952 174.4951 146.8732  1.00270348 49205
YAOGAN 10               
1 36834U 10038A   23357.91106664  .00001373  00000+0  17830-3 0  9994
2 36834  97.9583  11.0128 0001502  97.1994 355.9657 14.82335575722810
AEHF-1 (USA 214)        
1 36868U 10039A   23357.88751792  .00000030  00000+0  00000+0 0  9992
2 36868   5.9368  79.5766 0002900 138.4701 197.6685  1.00267987 44560
TIANHUI 1               
1 36985U 10040A   23357.67573791  .00023604  00000+0  60934-3 0  9990
2 36985  97.5943 235.7687 0023363 137.0701 223.2373 15.38868360741826
COSMOS 2467             
1 37152U 10043A   23357.82011528  .00000024  00000+0  10515-3 0  9993
2 37152  82.4567 271.9575 0001616   1.9570  52.6436 12.42935350602901
STRELA 3                
1 37153U 10043B   23357.90583605 -.00000003  00000+0 -92997-4 0  9997
2 37153  82.4576 282.9310 0006520 253.0563 106.9801 12.40761180601973
COSMOS 2468             
1 37154U 10043C   23357.89360734  .00000022  00000+0  88257-4 0  9995
2 37154  82.4606 269.6573 0014651 121.5872 306.9548 12.43699572603214
YAOGAN 11               
1 37165U 10047A   23357.92753360  .00001688  00000+0  23793-3 0  9998
2 37165  98.4200 163.4017 0036141 263.7826  95.9266 14.78302526714005
ZHEDA PIXING 1B         
1 37166U 10047B   23357.87875540  .00003886  00000+0  46900-3 0  9995
2 37166  97.8320 324.2618 0023050  24.4695 335.7608 14.84178138715639
ZHEDA PIXING 1C         
1 37167U 10047C   23357.87966357  .00003732  00000+0  45238-3 0  9996
2 37167  97.8646 324.3778 0022709  27.5695 332.6718 14.84022664715666
SBSS (USA 216)          
1 37168U 10048A   23357.91261711  .00001721  00000+0  21817-3 0  9998
2 37168  97.8749 213.0146 0002096  81.7161  45.8484 14.83016326715829
SHIJIAN-6 04A (SJ-6 04A)
1 37179U 10051A   23357.91736345  .00008273  00000+0  65529-3 0  9991
2 37179  97.8111 344.7661 0030152  74.3854 286.0694 15.00476012720223
SHIJIAN-6 04B (SJ-6 04B)
1 37180U 10051B   23357.95240723  .00001809  00000+0  16884-3 0  9995
2 37180  97.8229 342.4206 0012725  96.6057 263.6613 14.95403611720043
XM-5                    
1 37185U 10053A   23356.93262906 -.00000011  00000+0  00000+0 0  9990
2 37185   0.0195 295.8486 0000905 241.9468 133.9748  1.00270679 48381
GLOBALSTAR M079         
1 37188U 10054A   23357.42264844 -.00000081  00000+0  12807-3 0  9991
2 37188  52.0062 349.0043 0000228 109.3133  55.1784 12.62270763608032
GLOBALSTAR M074         
1 37189U 10054B   23357.27804149 -.00000094  00000+0  53004-4 0  9992
2 37189  52.0044 348.8538 0000306  58.1222  49.0517 12.62263388608622
GLOBALSTAR M076         
1 37190U 10054C   23357.39288291 -.00000090  00000+0  78625-4 0  9993
2 37190  52.0080 348.6378 0000529 326.7295 181.0635 12.62261536608356
GLOBALSTAR M077         
1 37191U 10054D   23357.30416681 -.00000085  00000+0  10735-3 0  9992
2 37191  52.0087 305.5961 0000590  44.0108 120.1024 12.62267571608716
GLOBALSTAR M075         
1 37192U 10054E   23357.94246925 -.00000079  00000+0  14031-3 0  9991
2 37192  51.9967  29.5111 0000458 127.0191 298.7134 12.62268448607659
GLOBALSTAR M073         
1 37193U 10054F   23357.33030963 -.00000095  00000+0  51040-4 0  9998
2 37193  52.0079 304.7769 0000537  50.4457 114.2131 12.62270490609409
BSAT-3B                 
1 37207U 10056B   23357.89424400 -.00000339  00000+0  00000+0 0  9996
2 37207   0.0636 303.7750 0005298 353.3490 226.8189  1.00271868 43031
BEIDOU-2 G4             
1 37210U 10057A   23357.84687830 -.00000102  00000+0  00000+0 0  9992
2 37210   1.4286  65.2439 0008168 187.1478 304.5759  1.00272932 48207
FENGYUN 3B              
1 37214U 10059A   23357.93020212  .00000225  00000+0  14137-3 0  9998
2 37214  99.0725  18.4148 0021468 228.9826 192.7902 14.14421210679298
COSMO-SKYMED 4          
1 37216U 10060A   23357.91247460  .00001095  00000+0  14407-3 0  9992
2 37216  97.8850 178.6527 0001333  85.6566 274.4799 14.82169473710320
SKYTERRA 1              
1 37218U 10061A   23357.86654545 -.00000109  00000+0  00000+0 0  9991
2 37218   3.2874  46.0604 0003580 199.6567  57.0495  1.00271640 48100
HYLAS 1                 
1 37237U 10065A   23357.84618211 -.00000135  00000+0  00000+0 0  9993
2 37237   3.3247  83.9823 0002164 189.7044 279.4718  1.00270916 47894
INTELSAT 17 (IS-17)     
1 37238U 10065B   23357.87618994  .00000009  00000+0  00000+0 0  9994
2 37238   0.0344  56.3844 0002610 231.5119 185.6590  1.00272535 44150
BEIDOU-2 IGSO-2         
1 37256U 10068A   23357.77999653 -.00000213  00000+0  00000+0 0  9998
2 37256  49.2064 282.9700 0029000 212.5882 341.7791  1.00248080 47700
EUTELSAT KA-SAT 9A      
1 37258U 10069A   23357.67367420  .00000074  00000+0  00000+0 0  9995
2 37258   0.0588 283.5404 0002422 325.3923  94.5513  1.00274687 34909
HISPASAT 30W-5          
1 37264U 10070A   23357.88073014 -.00000204  00000+0  00000+0 0  9996
2 37264   0.0587 107.9175 0003459 147.3985 123.8958  1.00270929 44095
KOREASAT 6              
1 37265U 10070B   23357.87063334 -.00000351  00000+0  00000+0 0  9993
2 37265   0.0354 107.9031 0003419 170.5779 243.0896  1.00271731 47680
BEIDOU-2 IGSO-3         
1 37384U 11013A   23357.58516588 -.00000195  00000+0  00000+0 0  9991
2 37384  61.0940  48.8223 0026664 184.4910 173.8145  1.00253742 46570
RESOURCESAT-2           
1 37387U 11015A   23357.86318928  .00000320  00000+0  16510-3 0  9991
2 37387  98.6020  63.3410 0003323 263.5708  96.5092 14.21679088657403
YOUTHSAT                
1 37388U 11015B   23357.89863174  .00000421  00000+0  19812-3 0  9993
2 37388  98.2973   2.0730 0015721 121.8330 304.5721 14.24737462658545
X-SAT                   
1 37389U 11015C   23357.91360180  .00000183  00000+0  95919-4 0  9994
2 37389  98.2953   6.6067 0015145 122.5614 237.7031 14.24605745658617
INTELSAT NEW DAWN       
1 37392U 11016A   23357.90396685  .00000167  00000+0  00000+0 0  9991
2 37392   0.0173  39.1689 0001419 245.0544 166.1862  1.00273374 44209
YAHSAT 1A               
1 37393U 11016B   23357.88174426  .00000112  00000+0  00000+0 0  9996
2 37393   0.0304  88.8525 0002221 187.2039 186.0182  1.00271257 33329
SBIRS GEO-1 (USA 230)   
1 37481U 11019A   23357.82816838  .00000005  00000+0  00000+0 0  9992
2 37481   2.6671  45.1886 0002268 226.0621 184.6913  1.00271791 46310
TELSTAR 14R             
1 37602U 11021A   23357.87420344 -.00000268  00000+0  00000+0 0  9990
2 37602   0.0320 284.6331 0002467  17.9724  41.2487  1.00270416 46749
GSAT-8                  
1 37605U 11022A   23357.46793064  .00000096  00000+0  00000+0 0  9999
2 37605   0.0162  80.1024 0009029 187.1090  48.0751  1.00271915 44125
ST-2                    
1 37606U 11022B   23357.91090760 -.00000200  00000+0  00000+0 0  9991
2 37606   0.0178  71.9885 0001840 237.7068 198.4301  1.00270718 46196
CHINASAT 10 (ZX 10)     
1 37677U 11026A   23357.89979861 -.00000341  00000+0  00000+0 0  9994
2 37677   0.0226 296.9280 0003679 284.0161 305.6764  1.00269163 45913
SJ-11-03                
1 37730U 11030A   23357.94994906  .00001446  00000+0  29815-3 0  9997
2 37730  97.8257 346.5993 0009340  27.8229  24.7336 14.61826876664588
TIANLIAN 1-02           
1 37737U 11032A   23357.87368130 -.00000131  00000+0  00000+0 0  9994
2 37737   3.2717  73.7371 0006528 213.8003  53.5195  0.98996202 35129
GLOBALSTAR M083         
1 37739U 11033A   23357.88862663 -.00000080  00000+0  13429-3 0  9994
2 37739  51.9856 252.5494 0001086  77.6190  45.7275 12.62264209578498
GLOBALSTAR M088         
1 37740U 11033B   23357.87139847 -.00000078  00000+0  14502-3 0  9996
2 37740  51.9713 158.5462 0001334 106.6482  58.6578 12.62269150574030
GLOBALSTAR M091         
1 37741U 11033C   23357.54934769 -.00000109  00000+0 -31896-4 0  9999
2 37741  51.9993 122.1146 0001204 116.0393 324.2417 12.62269775575048
GLOBALSTAR M085         
1 37742U 11033D   23357.63396729 -.00000092  00000+0  68402-4 0  9991
2 37742  51.9880  73.3758 0000889 126.1220  38.9225 12.62266077575799
GLOBALSTAR M081         
1 37743U 11033E   23357.56869520 -.00000099  00000+0  25611-4 0  9990
2 37743  51.9969  76.0268 0000913 140.1156 328.3546 12.62267681575442
GLOBALSTAR M089         
1 37744U 11033F   23357.28500571 -.00000080  00000+0  13450-3 0  9995
2 37744  51.9957  31.2222 0000217 163.0353 276.0932 12.62270368576257
SES-3                   
1 37748U 11035A   23357.86619735 -.00000090  00000+0  00000+0 0  9992
2 37748   0.0220 336.7024 0003342 302.7300  21.5427  1.00272216 45503
KAZSAT-2                
1 37749U 11035B   23357.91090760 -.00000186  00000+0  00000+0 0  9996
2 37749   0.0457 162.8119 0001188 243.9526  99.8404  1.00272406 44302
BEIDOU-2 IGSO-4         
1 37763U 11038A   23357.47506650  .00000066  00000+0  00000+0 0  9992
2 37763  54.5533 173.7454 0115982 226.3972 314.6359  1.00295088 45554
SJ-11-02                
1 37765U 11039A   23357.64725162  .00001078  00000+0  22232-3 0  9994
2 37765  98.3829 223.2318 0010114 211.5540 212.1444 14.62491986661354
ASTRA 1N                
1 37775U 11041A   23357.92202255  .00000131  00000+0  00000+0 0  9996
2 37775   0.0545  22.4326 0002502 309.3456 111.5350  1.00269697 35445
